HST                     
1 20580U 90037B   26180.85585004  .00007072  00000+0  22253-3 0  9998
2 20580  28.4734 353.9830 0001454 299.7936  60.2516 15.30894447790512
POLAR                   
1 23802U 96013A   26181.13098335  .00000195  00000+0  00000+0 0  9997
2 23802  79.8705 226.8996 6483378 208.6352  90.6787  1.29846073145029
SWAS                    
1 25560U 98071A   26181.46629663  .00001948  00000+0  12710-3 0  9998
2 25560  69.8938 193.2727 0008545 246.8865 113.1399 15.09684467499273
CXO                     
1 25867U 99040B   26182.60009460  .00000698  00000+0  00000+0 0  9995
2 25867  56.3386 116.3110 7812274 310.0948   0.4515  0.37794011 17375
XMM-NEWTON              
1 25989U 99066A   26181.31376484  .00000075  00000+0  00000+0 0  9997
2 25989  64.4187 282.8185 4670815  64.6474   0.0796  0.50127122 23075
TERRA                   
1 25994U 99068A   26181.59606142  .00000404  00000+0  91157-4 0  9996
2 25994  97.9450 230.6103 0002600 153.0856   8.2894 14.61113534411563
CLUSTER II-FM7 (SAMBA)  
1 26410U 00041A   26181.52661441  .00015728  00000+0  00000+0 0  9996
2 26410 149.8901  53.0517 9069081 270.4354 359.5654  0.44858661 20366
CLUSTER II-FM8 (TANGO)  
1 26464U 00045B   26179.69554141  .00010301  00000+0  00000+0 0  9994
2 26464 150.1134  53.8490 9072079 271.0645   2.4192  0.44420805 20363
ODIN                    
1 26702U 01007A   26181.09336895  .00225491  00000+0  11434-2 0  9993
2 26702  97.3784 222.9075 0006012 133.8248 226.3518 15.80880084391431
TIMED                   
1 26998U 01055B   26181.45596281  .00000972  00000+0  91731-4 0  9995
2 26998  74.0663 208.3016 0001774 317.4958  42.6089 14.95318085332807
CORIOLIS                
1 27640U 03001A   26181.44460005  .00000094  00000+0  64880-4 0  9996
2 27640  98.7127 188.1270 0014160 169.9782 190.1680 14.19948335216108
SORCE                   
1 27651U 03004A   26181.42204679  .00002331  00000+0  17722-3 0  9990
2 27651  39.9886 186.1637 0016780 150.9738 209.1992 15.03771753273893
MOST                    
1 27843U 03031D   26181.44586802  .00000062  00000+0  48451-4 0  9999
2 27843  98.7044 188.9867 0009233 208.3088 151.7588 14.21325107192598
SCISAT 1                
1 27858U 03036A   26181.32633229  .00000615  00000+0  83216-4 0  9995
2 27858  73.9294 145.2371 0008091 215.2537 144.8105 14.81462317233392
SWIFT                   
1 28485U 04047A   26181.41181666  .00050626  00000+0  39912-3 0  9998
2 28485  20.5527  82.7932 0001138 123.8343 236.2212 15.69596486188945
HINODE (SOLAR-B)        
1 29479U 06041A   26181.47101888  .00000709  00000+0  13017-3 0  9997
2 29479  98.0543 197.4276 0016098 243.7599 116.1952 14.68640619 56822
SHIJIAN-6 02A (SJ-6 02A)
1 29505U 06046A   26181.54759696  .00007477  00000+0  38064-3 0  9994
2 29505  97.6350 222.7152 0004782  94.1955 265.9824 15.17096270 74294
SHIJIAN-6 02B (SJ-6 02B)
1 29506U 06046B   26181.54230796  .00001364  00000+0  11024-3 0  9996
2 29506  97.7152 210.5185 0015109  22.4670 337.7213 15.01409281 72741
FGRST (GLAST)           
1 33053U 08029A   26181.19308794  .00002841  00000+0  10039-3 0  9992
2 33053  25.5817 114.1679 0008498 118.6768 241.4625 15.24001866997821
SDO                     
1 36395U 10005A   26181.24558567 -.00000090  00000+0  00000+0 0  9990
2 36395  34.6771  86.1450 0001493  51.4419 126.9147  1.00270579 60198
CRYOSAT 2               
1 36508U 10013A   26181.58984490  .00000103  00000+0  24799-4 0  9990
2 36508  92.0362 280.5597 0002170  96.2958 263.8497 14.51903007860026
X-SAT                   
1 37389U 11015C   26181.56452484  .00000004  00000+0  19328-4 0  9994
2 37389  98.3511 157.9510 0013128 307.9179  52.0814 14.25209533789589
GCOM-W1 (SHIZUKU)       
1 38337U 12025A   26181.43336722  .00000461  00000+0  11222-3 0  9993
2 38337  98.2022 121.7886 0001587  68.9254  45.6555 14.57136485750968
NUSTAR                  
1 38358U 12031A   26181.58334491  .00008078  00000+0  44346-3 0  9995
2 38358   6.0267 293.6578 0008384 304.0292  30.0340 15.08922890  1301
NEOSSAT                 
1 39089U 13009D   26181.44993952  .00000138  00000+0  62587-4 0  9998
2 39089  98.4181   1.1675 0010512 201.1175 158.9579 14.35830923698643
BRITE-AUSTRIA           
1 39091U 13009F   26181.44196622  .00000177  00000+0  74807-4 0  9991
2 39091  98.3999   0.5499 0009825 194.0076 166.0839 14.36547215698957
IRIS                    
1 39197U 13033A   26181.49830415  .00000990  00000+0  11946-3 0  9992
2 39197  97.9321  20.7334 0022968 276.0181  83.8417 14.85910636702354
HISAKI (SPRINT-A)       
1 39253U 13049A   26181.38575661  .00000081  00000+0  22820-4 0  9994
2 39253  29.7176 152.9060 0136874 123.8611 237.5067 13.55545707633217
CASSIOPE                
1 39265U 13055A   26181.60554600  .00042371 -41593-6  45757-3 0  9990
2 39265  80.9129  50.4124 0287629  17.2878 343.7900 15.26416609669714
STSAT-3                 
1 39422U 13066G   26181.56284493  .00000873  00000+0  69622-4 0  9991
2 39422  97.6215 151.2361 0009836   4.8541 355.2778 15.02823662686214
SWARM B                 
1 39451U 13067A   26181.55425285  .00003387  00000+0  12044-3 0  9997
2 39451  87.7445 338.2547 0002870  79.9053 280.2520 15.28632609685281
